EUTELSAT QUANTUM        
1 49056U 21069B   25272.15360475  .00000129  00000+0  00000+0 0  9991
2 49056   0.0365 286.2711 0002409 282.0847 262.8362  1.00272224 15312
EUTELSAT KONNECT VHTS   
1 53765U 22110A   25272.14467803  .00000021  00000+0  00000+0 0  9994
2 53765   0.0519 103.4497 0003032  62.6166 256.9008  1.00273780  4200
EUTELSAT HOTBIRD 13F    
1 54048U 22134A   25272.14675804  .00000091  00000+0  00000+0 0  9994
2 54048   0.0600 285.5984 0001926  81.7190  66.7042  1.00273440 10753
EUTELSAT HOTBIRD 13G    
1 54225U 22146A   25272.21808500  .00000091  00000+0  00000+0 0  9993
2 54225   0.0505 236.0751 0002042 294.2943 289.4082  1.00271118  4845
EUTELSAT 10B            
1 54259U 22157A   25272.07479000  .00000073  00000+0  00000+0 0  9995
2 54259   0.0539 101.0220 0002007  14.6784 289.3510  1.00273654 10398
EUTELSAT 36D            
1 59346U 24059A   25272.15126473  .00000159  00000+0  00000+0 0  9997
2 59346   0.0184 197.6218 0000395 253.8080   7.0535  1.00270276  5526
